{"type":"FeatureCollection","features":[{"type":"Feature","properties":{"Taman":"Universitas Indonesia","Luas":"3.500"},"geometry":{"coordinates":[[[106.81912701219841,-6.37118770878898],[106.83023229978778,-6.375128278202894],[106.8323288142306,-6.365612790889628],[106.83210195013066,-6.36313487471736],[106.83170596339647,-6.355307666192047],[106.8326133808855,-6.346858252621814],[106.83102633792373,-6.346689841488612],[106.83057302724518,-6.348379350389507],[106.82643599785376,-6.347816693736036],[106.81912701219841,-6.37118770878898]]],"type":"Polygon"},"id":0}]}