{"type":"FeatureCollection","features":[{"type":"Feature","properties":{"Nama":"Jakarta","Luas":661.52,"Populasi":11010000,"Tahun":2025},"geometry":{"coordinates":[106.82325715056078,-6.171248561823646],"type":"Point"},"id":0},{"type":"Feature","properties":{"Nama":"Jawa Barat","Luas":37.053,"Populasi":51700000,"Tahun":2025},"geometry":{"coordinates":[107.60505980107934,-6.919666749793208],"type":"Point"},"id":1},{"type":"Feature","properties":{"Nama":"Jawa tengah","Luas":"32.80069 ","Populasi":38562958,"Tahun":2025},"geometry":{"coordinates":[110.41993148184474,-6.992830376203088],"type":"Point"},"id":2},{"type":"Feature","properties":{"Nama":"Yogyakarta","Luas":3.17036,"Populasi":3752145,"Tahun":2025},"geometry":{"coordinates":[110.36512881573583,-7.796409691858756],"type":"Point"},"id":3},{"type":"Feature","properties":{"Nama":"Jawa Timur","Luas":48.05588,"Populasi":"42000000","Tahun":2025},"geometry":{"coordinates":[112.73670730234693,-7.248457364430664],"type":"Point"},"id":4},{"type":"Feature","properties":{"Nama":"Banten","Luas":9.35277,"Populasi":129000000,"Tahun":2025},"geometry":{"coordinates":[106.14263727328728,-6.115883945446228],"type":"Point"}}]}